OBJECT_NAME,OBJECT_ID,EPOCH,MEAN_MOTION,ECCENTRICITY,INCLINATION,RA_OF_ASC_NODE,ARG_OF_PERICENTER,MEAN_ANOMALY,EPHEMERIS_TYPE,CLASSIFICATION_TYPE,NORAD_CAT_ID,ELEMENT_SET_NO,REV_AT_EPOCH,BSTAR,MEAN_MOTION_DOT,MEAN_MOTION_DDOT
QIANFAN-198,2026-125R,2026-06-30T18:03:56.066400,14.22069870,.001567,88.9956,278.8932,130.9051,229.3500,0,U,69416,999,363,.18255E-3,.419E-5,0
QIANFAN-199,2026-125S,2026-06-30T17:42:16.416000,14.23633548,.0017404,88.9956,278.8908,131.6993,228.5691,0,U,69417,999,363,.1854E-3,.438E-5,0
QIANFAN-200,2026-125T,2026-06-30T18:49:55.030080,14.19643570,.0016422,88.9956,278.8980,129.8196,230.4443,0,U,69418,999,363,.19674E-3,.43E-5,0
STARLINK-37537,2026-126A,2026-06-30T03:11:52.533888,15.75165301,.00009784,97.2831,41.7450,116.6810,243.4555,0,U,69420,999,478,.12009941E-2,.182694E-2,0
STARLINK-37585,2026-126B,2026-06-30T13:36:59.575680,15.75291071,.000155,97.2834,42.2272,111.8854,248.2576,0,U,69421,999,485,.17741E-2,.274368E-2,0
STARLINK-37573,2026-126C,2026-06-30T03:16:28.101504,15.75168017,.00045559,97.2811,41.7402,55.4165,304.7530,0,U,69422,999,478,.13978844E-2,.213546E-2,0
STARLINK-37820,2026-126D,2026-06-30T20:00:01.999008,15.75240203,.0001109,97.2842,42.5907,90.1196,175.3725,0,U,69423,999,490,-.67746E-3,-.100216E-2,0
STARLINK-37822,2026-126E,2026-06-30T04:01:10.821504,15.75183837,.00010667,97.2837,41.8516,90.8642,269.2746,0,U,69424,999,479,.12490845E-2,.190339E-2,0
STARLINK-37836,2026-126F,2026-06-30T20:00:01.999008,15.75234103,.0001138,97.2841,42.5978,96.2991,185.1912,0,U,69425,999,490,-.67697E-3,-.100118E-2,0
STARLINK-37850,2026-126G,2026-06-30T20:00:01.999008,15.75237142,.0001185,97.2838,42.5862,90.0196,163.4789,0,U,69426,999,495,-.68488E-3,-.101287E-2,0
STARLINK-37823,2026-126H,2026-06-30T13:19:12.368928,15.75270761,.00007571,97.2839,42.2441,102.0597,258.0753,0,U,69427,999,485,.16223791E-2,.249951E-2,0
STARLINK-37834,2026-126J,2026-06-30T02:51:02.938464,15.75280316,.0001485,97.2833,41.7680,51.9662,308.1737,0,U,69428,999,478,.14650113E-2,.225122E-2,0
STARLINK-37857,2026-126K,2026-06-30T02:34:47.148960,15.75311602,.0001003,97.2829,41.7814,74.9010,285.2366,0,U,69429,999,478,.18688002E-2,.289807E-2,0
STARLINK-37866,2026-126L,2026-06-30T20:00:01.999008,15.75269688,.0001336,97.2845,42.6026,83.1435,210.3336,0,U,69430,999,495,-.1019E-2,-.149996E-2,0
STARLINK-37555,2026-126M,2026-06-30T20:00:01.999008,15.75227575,.0001198,97.2840,42.5724,94.4259,127.0796,0,U,69431,999,495,-.68934E-3,-.101897E-2,0
STARLINK-37870,2026-126N,2026-06-30T20:00:01.999008,15.75256667,.0001142,97.2841,42.5809,89.8302,151.6625,0,U,69432,999,490,-.89277E-3,-.131638E-2,0
STARLINK-37872,2026-126P,2026-06-30T01:55:54.198624,15.80025605,.00004052,97.2831,41.8183,350.5789,9.5471,0,U,69433,999,478,.14000241E-2,.266657E-2,0
STARLINK-37815,2026-126Q,2026-06-30T03:02:12.549696,15.75274020,.00024761,97.2833,41.7543,180.1986,179.9278,0,U,69434,999,478,-.19076727E-3,-.28597E-3,0
STARLINK-37801,2026-126R,2026-06-30T13:22:15.269088,15.75293426,.00011203,97.2833,42.2419,107.9812,252.1576,0,U,69435,999,490,.18026544E-2,.278965E-2,0
STARLINK-37800,2026-126S,2026-06-30T13:25:18.232320,15.75289925,.0001377,97.2828,42.2376,110.4338,249.7075,0,U,69436,999,485,.18036E-2,.27907E-2,0
STARLINK-37792,2026-126T,2026-06-30T17:06:54.998784,15.80070124,.0000825,97.2817,42.4869,142.4018,217.7307,0,U,69437,999,493,.12484E-2,.237431E-2,0
STARLINK-37783,2026-126U,2026-06-30T20:00:01.999008,15.75206139,.0001526,97.2842,42.6121,84.3408,231.1708,0,U,69438,999,495,-.54249E-3,-.80348E-3,0
STARLINK-37771,2026-126V,2026-06-30T03:08:19.652928,15.75163982,.00023915,97.2819,41.7493,62.8171,297.3338,0,U,69439,999,478,.10738846E-2,.162966E-2,0
STARLINK-37747,2026-126W,2026-06-30T19:09:52.707744,15.75245519,.0001262,97.2834,42.5250,84.0949,276.0460,0,U,69440,999,489,.11542E-2,.176046E-2,0
STARLINK-37629,2026-127A,2026-06-30T20:00:01.999008,15.75219215,.0001045,53.1578,194.5935,110.2950,324.4372,0,U,69443,999,483,.82481E-4,.12011E-3,0
STARLINK-37509,2026-127B,2026-06-30T11:58:13.580256,15.75271414,.0001474,53.1587,196.2073,94.8883,265.2306,0,U,69444,999,350,.70603E-3,.109147E-2,0
STARLINK-37641,2026-127C,2026-06-30T14:40:52.119840,15.75270621,.0001172,53.1572,195.4841,100.8629,259.2523,0,U,69445,999,352,.61403E-3,.94675E-3,0
STARLINK-37522,2026-127D,2026-06-30T11:57:45.217728,15.75278713,.0001643,53.1589,196.2048,93.7354,266.3854,0,U,69446,999,350,.92485E-3,.143814E-2,0
STARLINK-37640,2026-127E,2026-06-30T20:00:01.999008,15.75203179,.0000894,53.1584,194.2238,90.2346,164.7821,0,U,69447,999,483,.14725E-3,.21955E-3,0
