QIANFAN-198             
1 69416U 26125R   26181.75273225  .00000419  00000+0  18255-3 0  9990
2 69416  88.9956 278.8932 0015670 130.9051 229.3500 14.22069870  3632
QIANFAN-199             
1 69417U 26125S   26181.73769000  .00000438  00000+0  18540-3 0  9998
2 69417  88.9956 278.8908 0017404 131.6993 228.5691 14.23633548  3638
QIANFAN-200             
1 69418U 26125T   26181.78466470  .00000430  00000+0  19674-3 0  9990
2 69418  88.9956 278.8980 0016422 129.8196 230.4443 14.19643570  3630
STARLINK-37537          
1 69420U 26126A   26181.13324692  .00182694  00000+0  12010-2 0  9991
2 69420  97.2831  41.7450 0000978 116.6810 243.4555 15.75165301  4782
STARLINK-37585          
1 69421U 26126B   26181.56735620  .00274368  00000+0  17741-2 0  9992
2 69421  97.2834  42.2272 0001550 111.8854 248.2576 15.75291071  4854
STARLINK-37573          
1 69422U 26126C   26181.13643636  .00213546  00000+0  13979-2 0  9991
2 69422  97.2811  41.7402 0004555  55.4165 304.7530 15.75168017  4788
STARLINK-37820          
1 69423U 26126D   26181.83335647 -.00100216  00000+0 -67746-3 0  9992
2 69423  97.2842  42.5907 0001109  90.1196 175.3725 15.75240203  4904
STARLINK-37822          
1 69424U 26126E   26181.16748636  .00190339  00000+0  12491-2 0  9994
2 69424  97.2837  41.8516 0001066  90.8642 269.2746 15.75183837  4794
STARLINK-37836          
1 69425U 26126F   26181.83335647 -.00100118  00000+0 -67697-3 0  9990
2 69425  97.2841  42.5978 0001138  96.2991 185.1912 15.75234103  4904
STARLINK-37850          
1 69426U 26126G   26181.83335647 -.00101287  00000+0 -68488-3 0  9998
2 69426  97.2838  42.5862 0001185  90.0196 163.4789 15.75237142  4956
STARLINK-37823          
1 69427U 26126H   26181.55500427  .00249951  00000+0  16224-2 0  9997
2 69427  97.2839  42.2441 0000757 102.0597 258.0753 15.75270761  4856
STARLINK-37834          
1 69428U 26126J   26181.11878401  .00225122  00000+0  14650-2 0  9995
2 69428  97.2833  41.7680 0001485  51.9662 308.1737 15.75280316  4782
STARLINK-37857          
1 69429U 26126K   26181.10749015  .00289807  00000+0  18688-2 0  9998
2 69429  97.2829  41.7814 0001003  74.9010 285.2366 15.75311602  4781
STARLINK-37866          
1 69430U 26126L   26181.83335647 -.00149996  00000+0 -10190-2 0  9998
2 69430  97.2845  42.6026 0001336  83.1435 210.3336 15.75269688  4959
STARLINK-37555          
1 69431U 26126M   26181.83335647 -.00101897  00000+0 -68934-3 0  9997
2 69431  97.2840  42.5724 0001198  94.4259 127.0796 15.75227575  4957
STARLINK-37870          
1 69432U 26126N   26181.83335647 -.00131638  00000+0 -89277-3 0  9997
2 69432  97.2841  42.5809 0001142  89.8302 151.6625 15.75256667  4902
STARLINK-37872          
1 69433U 26126P   26181.08048841  .00266657  00000+0  14000-2 0  9991
2 69433  97.2831  41.8183 0000405 350.5789   9.5471 15.80025605  4785
STARLINK-37815          
1 69434U 26126Q   26181.12653414 -.00028597  00000+0 -19077-3 0  9996
2 69434  97.2833  41.7543 0002476 180.1986 179.9278 15.75274020  4781
STARLINK-37801          
1 69435U 26126R   26181.55712117  .00278965  00000+0  18027-2 0  9997
2 69435  97.2833  42.2419 0001120 107.9812 252.1576 15.75293426  4900
STARLINK-37800          
1 69436U 26126S   26181.55923880  .00279070  00000+0  18036-2 0  9997
2 69436  97.2828  42.2376 0001377 110.4338 249.7075 15.75289925  4852
STARLINK-37792          
1 69437U 26126T   26181.71313656  .00237431  00000+0  12484-2 0  9996
2 69437  97.2817  42.4869 0000825 142.4018 217.7307 15.80070124  4934
STARLINK-37783          
1 69438U 26126U   26181.83335647 -.00080348  00000+0 -54249-3 0  9995
2 69438  97.2842  42.6121 0001526  84.3408 231.1708 15.75206139  4950
STARLINK-37771          
1 69439U 26126V   26181.13078302  .00162966  00000+0  10739-2 0  9991
2 69439  97.2819  41.7493 0002391  62.8171 297.3338 15.75163982  4788
STARLINK-37747          
1 69440U 26126W   26181.79852671  .00176046  00000+0  11542-2 0  9991
2 69440  97.2834  42.5250 0001262  84.0949 276.0460 15.75245519  4891
STARLINK-37629          
1 69443U 26127A   26181.83335647  .00012011  00000+0  82481-4 0  9992
2 69443  53.1578 194.5935 0001045 110.2950 324.4372 15.75219215  4839
STARLINK-37509          
1 69444U 26127B   26181.49876829  .00109147  00000+0  70603-3 0  9996
2 69444  53.1587 196.2073 0001474  94.8883 265.2306 15.75271414  3501
STARLINK-37641          
1 69445U 26127C   26181.61171435  .00094675  00000+0  61403-3 0  9999
2 69445  53.1572 195.4841 0001172 100.8629 259.2523 15.75270621  3526
STARLINK-37522          
1 69446U 26127D   26181.49844002  .00143814  00000+0  92485-3 0  9997
2 69446  53.1589 196.2048 0001643  93.7354 266.3854 15.75278713  3505
STARLINK-37640          
1 69447U 26127E   26181.83335647  .00021955  00000+0  14725-3 0  9998
2 69447  53.1584 194.2238 0000894  90.2346 164.7821 15.75203179  4836
